[{"OBJECT_NAME":"STARLINK-6253","OBJECT_ID":"2023-088AM","EPOCH":"2026-03-09T22:00:01.999584","MEAN_MOTION":15.07537854,"ECCENTRICITY":0.00020756,"INCLINATION":43.0012,"RA_OF_ASC_NODE":93.1892,"ARG_OF_PERICENTER":276.671,"MEAN_ANOMALY":108.0409,"EPHEMERIS_TYPE":0,"CLASSIFICATION_TYPE":"U","NORAD_CAT_ID":57083,"ELEMENT_SET_NO":999,"REV_AT_EPOCH":542,"BSTAR":0.0036323374,"MEAN_MOTION_DOT":0.00056362,"MEAN_MOTION_DDOT":0},{"OBJECT_NAME":"FENGYUN 1C DEB","OBJECT_ID":"1999-025EXB","EPOCH":"2026-02-23T13:42:59.544864","MEAN_MOTION":14.51393564,"ECCENTRICITY":0.0280295,"INCLINATION":99.4251,"RA_OF_ASC_NODE":186.6378,"ARG_OF_PERICENTER":116.5278,"MEAN_ANOMALY":246.4942,"EPHEMERIS_TYPE":0,"CLASSIFICATION_TYPE":"U","NORAD_CAT_ID":40695,"ELEMENT_SET_NO":999,"REV_AT_EPOCH":32922,"BSTAR":0.00034500254,"MEAN_MOTION_DOT":2.228e-5,"MEAN_MOTION_DDOT":0}]
